1998-067XU              
1 66908U 98067XU  26024.73143911  .00107534  00000+0  13800-2 0  9995
2 66908  51.6284 287.8746 0003159 113.2223 246.9102 15.58285977  8303
SILVERSAT               
1 66909U 98067XV  26025.42239159  .00137063  00000+0  16736-2 0  9994
2 66909  51.6290 284.2393 0003469 132.4059 227.7228 15.59477961  8419
1998-067XW              
1 66910U 98067XW  26025.42770570  .00114019  00000+0  14395-2 0  9998
2 66910  51.6283 284.2718 0001849 111.5398 248.5792 15.58694514  8419
1998-067XX              
1 66911U 98067XX  26024.76212816  .00130264  00000+0  15417-2 0  9995
2 66911  51.6271 287.3275 0002356 137.8769 222.2406 15.60326118  8300
1998-067XY              
1 66912U 98067XY  26024.76119113  .00076682  00000+0  10616-2 0  9991
2 66912  51.6291 288.0745 0002879  92.7401 267.3920 15.56408816  8295
